GAOFEN-11 01            
1 43585U 18063A   26187.27884444  .00015976  00000+0  23208-3 0  9993
2 43585  97.1272 254.1109 0002247 241.9330 118.1698 15.55872410443311
ICESAT-2                
1 43613U 18070A   26187.27503259  .00009262  00000+0  33650-3 0  9998
2 43613  92.0086 296.1372 0006009  83.7096 276.4838 15.28241969435379
HYSIS                   
1 43719U 18096A   26187.29465819  .00002158  00000+0  30158-3 0  9991
2 43719  97.9827 253.8925 0001891  88.7617 271.3810 14.78661996410248
KAZSTSAT                
1 43783U 18099AB  26187.04398822  .00001983  00000+0  16419-3 0  9996
2 43783  97.4309 218.1200 0008038  14.8772 345.2687 14.99936888414134
SAUDISAT 5A             
1 43831U 18102A   26187.28530877  .00005169  00000+0  19013-3 0  9992
2 43831  97.3053 248.4994 0011051  71.3802 288.8637 15.28257395418593
SAUDISAT 5B             
1 43833U 18102C   26187.30100565  .00005039  00000+0  18401-3 0  9990
2 43833  97.3161 251.6192 0011803  72.8991 287.3540 15.28504136418710
GAOFEN-10R              
1 44622U 19066A   26187.31534007  .00001161  00000+0  14938-3 0  9993
2 44622  98.0505 141.0343 0007162  75.9375 284.2634 14.83043409365217
CARTOSAT-3              
1 44804U 19081A   26187.32363745  .00002967  00000+0  14360-3 0  9996
2 44804  97.4285 248.8824 0013359  88.7236 271.5529 15.19280748366379
GAOFEN-12 01            
1 44819U 19082A   26187.27458543  .00000363  00000+0  54011-4 0  9994
2 44819  97.8104 193.1504 0001443  53.3447 306.7898 14.80474410356916
CSG-1                   
1 44873U 19092A   26187.29185014  .00000439  00000+0  61691-4 0  9993
2 44873  97.8893  10.6180 0001491  90.4035 269.7349 14.82145983354304
NEMO-HD                 
1 46277U 20061F   26187.23884534  .00009662  00000+0  20674-3 0  9990
2 46277  97.1904 249.0030 0001260  76.1530 283.9860 15.45004246324924
SENTINEL-6A             
1 46984U 20086A   26187.13601201 -.00000041  00000+0  87840-4 0  9991
2 46984  66.0415  95.6969 0007829 270.0295  89.9823 12.80930112262758
CAS500-1                
1 47932U 21022A   26187.28377328  .00005480  00000+0  25603-3 0  9991
2 47932  97.3873  82.1484 0003947 204.8960 155.2085 15.20201924293661
GAOFEN-12 02            
1 48079U 21026A   26187.28769771  .00000354  00000+0  53330-4 0  9999
2 48079  97.9928 185.3907 0005215 156.3692 203.7760 14.80311248284586
PLEIADES NEO 3          
1 48268U 21034A   26187.29730568  .00001166  00000+0  15471-3 0  9996
2 48268  97.8934 261.7891 0001352  91.8914 268.2454 14.81674870280486
PLEIADES NEO 4          
1 49070U 21073E   26187.33106002  .00000235  00000+0  36478-4 0  9993
2 49070  97.8933 261.8188 0001324  90.9012 269.2353 14.81676930264205
LANDSAT 9               
1 49260U 21088A   26187.21808578  .00000359  00000+0  89822-4 0  9992
2 49260  98.2273 257.1646 0001163  89.5715 270.5617 14.57110873253770
CSG-2                   
1 51444U 22008A   26187.25806601  .00000229  00000+0  35286-4 0  9992
2 51444  97.8891  10.5786 0001525  86.2005 273.9383 14.82156946239413
GAOFEN-12 03            
1 52912U 22069A   26187.25332493  .00001691  00000+0  22993-3 0  9997
2 52912  97.8250  74.6408 0002465  82.6498 277.4994 14.80068576217439
SWOT                    
1 54754U 22173A   26187.13798903  .00000025  00000+0  18809-4 0  9990
2 54754  77.6103   9.7257 0000299  76.8129 283.3056 14.00171795181804
GAOFEN-12 04            
1 57654U 23123A   26187.27122109  .00000968  00000+0  13560-3 0  9996
2 57654  97.9109 105.0063 0003871  68.3660 291.7964 14.79763533155453
PARS 1                  
1 59065U 24039Q   26187.27998013  .00009798  00000+0  20132-3 0  9999
2 59065  97.4836 168.8068 0010791  55.5105 304.7161 15.46148933131595
RESURS-P 4              
1 59371U 24061A   26187.26797587  .00002992  00000+0  98574-4 0  9991
2 59371  97.2756 134.8359 0003166 103.0758 257.0837 15.32243427126684
LEGION 1                
1 59625U 24081A   26187.16132006  .00004454  00000+0  22995-3 0  9991
2 59625  97.5008 264.8169 0007898 307.1062  52.9448 15.16803450120418
LEGION 2                
1 59626U 24081B   26187.19157248  .00003714  00000+0  19241-3 0  9998
2 59626  97.5008 264.9439 0009865 269.2409  90.7694 15.16781695120429
ALOS-4 (DAICHI-4)       
1 60182U 24123A   26186.75755847  .00001773  00000+0  24425-3 0  9997
2 60182  97.9216 283.6672 0001608  97.3968 262.7427 14.79476384108624
LEGION 3                
1 60452U 24146A   26187.10910478  .00003749  00000+0  20744-3 0  9990
2 60452  45.0021 289.0890 0008884 286.7069  73.2834 15.15617435104890
LEGION 4                
1 60453U 24146B   26187.04448355  .00004629  00000+0  24877-3 0  9993
2 60453  45.0022  21.3212 0011588  54.7631 305.4331 15.16192152103739
SENTINEL-2C             
1 60989U 24157A   26187.19351953  .00000118  00000+0  61531-4 0  9990
2 60989  98.5686 261.7062 0000937  94.8836 265.2454 14.30814003 95700
IONOSFERA-M 1           
1 61735U 24199A   26187.18176999  .00000038  00000+0  36723-4 0  9996
2 61735  98.7149  60.1513 0002222  84.9742 275.1690 14.22757865130405
