OBJECT_NAME,OBJECT_ID,EPOCH,MEAN_MOTION,ECCENTRICITY,INCLINATION,RA_OF_ASC_NODE,ARG_OF_PERICENTER,MEAN_ANOMALY,EPHEMERIS_TYPE,CLASSIFICATION_TYPE,NORAD_CAT_ID,ELEMENT_SET_NO,REV_AT_EPOCH,BSTAR,MEAN_MOTION_DOT,MEAN_MOTION_DDOT
GAOFEN-11 01,2018-063A,2026-07-06T06:41:32.159616,15.55872410,.0002247,97.1272,254.1109,241.9330,118.1698,0,U,43585,999,44331,.23208115E-3,.15976E-3,0
ICESAT-2,2018-070A,2026-07-06T06:36:02.815776,15.28241969,.00060091,92.0086,296.1372,83.7096,276.4838,0,U,43613,999,43537,.33650036E-3,.9262E-4,0
HYSIS,2018-096A,2026-07-06T07:04:18.467616,14.78661996,.00018912,97.9827,253.8925,88.7617,271.3810,0,U,43719,999,41024,.30158457E-3,.2158E-4,0
KAZSTSAT,2018-099AB,2026-07-06T01:03:20.582208,14.99936888,.00080389,97.4309,218.1200,14.8772,345.2687,0,U,43783,999,41413,.16418715E-3,.1983E-4,0
SAUDISAT 5A,2018-102A,2026-07-06T06:50:50.677728,15.28257395,.00110513,97.3053,248.4994,71.3802,288.8637,0,U,43831,999,41859,.19013275E-3,.5169E-4,0
SAUDISAT 5B,2018-102C,2026-07-06T07:13:26.888160,15.28504136,.00118037,97.3161,251.6192,72.8991,287.3540,0,U,43833,999,41871,.18400522E-3,.5039E-4,0
GAOFEN-10R,2019-066A,2026-07-06T07:34:05.382048,14.83043409,.00071621,98.0505,141.0343,75.9375,284.2634,0,U,44622,999,36521,.14937868E-3,.1161E-4,0
CARTOSAT-3,2019-081A,2026-07-06T07:46:02.275680,15.19280748,.00133597,97.4285,248.8824,88.7236,271.5529,0,U,44804,999,36637,.14360036E-3,.2967E-4,0
GAOFEN-12 01,2019-082A,2026-07-06T06:35:24.181152,14.80474410,.00014432,97.8104,193.1504,53.3447,306.7898,0,U,44819,999,35691,.54010524E-4,.363E-5,0
CSG-1,2019-092A,2026-07-06T07:00:15.852096,14.82145983,.00014916,97.8893,10.6180,90.4035,269.7349,0,U,44873,999,35430,.61690797E-4,.439E-5,0
NEMO-HD,2020-061F,2026-07-06T05:43:56.237376,15.45004246,.00012606,97.1904,249.0030,76.1530,283.9860,0,U,46277,999,32492,.20673662E-3,.9662E-4,0
SENTINEL-6A,2020-086A,2026-07-06T03:15:51.437664,12.80930112,.00078294,66.0415,95.6969,270.0295,89.9823,0,U,46984,999,26275,.87839757E-4,-.41E-6,0
CAS500-1,2021-022A,2026-07-06T06:48:38.011392,15.20201924,.00039475,97.3873,82.1484,204.8960,155.2085,0,U,47932,999,29366,.25603039E-3,.548E-4,0
GAOFEN-12 02,2021-026A,2026-07-06T06:54:17.082144,14.80311248,.00052155,97.9928,185.3907,156.3692,203.7760,0,U,48079,999,28458,.53329583E-4,.354E-5,0
PLEIADES NEO 3,2021-034A,2026-07-06T07:08:07.210752,14.81674870,.00013525,97.8934,261.7891,91.8914,268.2454,0,U,48268,999,28048,.15470817E-3,.1166E-4,0
PLEIADES NEO 4,2021-073E,2026-07-06T07:56:43.585728,14.81676930,.00013248,97.8933,261.8188,90.9012,269.2353,0,U,49070,999,26420,.36478138E-4,.235E-5,0
LANDSAT 9,2021-088A,2026-07-06T05:14:02.611392,14.57110873,.00011634,98.2273,257.1646,89.5715,270.5617,0,U,49260,999,25377,.89822042E-4,.359E-5,0
CSG-2,2022-008A,2026-07-06T06:11:36.903264,14.82156946,.00015251,97.8891,10.5786,86.2005,273.9383,0,U,51444,999,23941,.3528572E-4,.229E-5,0
GAOFEN-12 03,2022-069A,2026-07-06T06:04:47.273952,14.80068576,.00024659,97.8250,74.6408,82.6498,277.4994,0,U,52912,999,21743,.22992601E-3,.1691E-4,0
SWOT,2022-173A,2026-07-06T03:18:42.252192,14.00171795,.00002994,77.6103,9.7257,76.8129,283.3056,0,U,54754,999,18180,.18808724E-4,.25E-6,0
GAOFEN-12 04,2023-123A,2026-07-06T06:30:33.502176,14.79763533,.00038712,97.9109,105.0063,68.3660,291.7964,0,U,57654,999,15545,.13559847E-3,.968E-5,0
PARS 1,2024-039Q,2026-07-06T06:43:10.283232,15.46148933,.00107913,97.4836,168.8068,55.5105,304.7161,0,U,59065,999,13159,.20132471E-3,.9798E-4,0
RESURS-P 4,2024-061A,2026-07-06T06:25:53.115168,15.32243427,.0003166,97.2756,134.8359,103.0758,257.0837,0,U,59371,999,12668,.98573949E-4,.2992E-4,0
LEGION 1,2024-081A,2026-07-06T03:52:18.053184,15.16803450,.00078989,97.5008,264.8169,307.1062,52.9448,0,U,59625,999,12041,.22995395E-3,.4454E-4,0
LEGION 2,2024-081B,2026-07-06T04:35:51.862272,15.16781695,.00098655,97.5008,264.9439,269.2409,90.7694,0,U,59626,999,12042,.19240741E-3,.3714E-4,0
ALOS-4 (DAICHI-4),2024-123A,2026-07-05T18:10:53.051808,14.79476384,.00016083,97.9216,283.6672,97.3968,262.7427,0,U,60182,999,10862,.24424639E-3,.1773E-4,0
LEGION 3,2024-146A,2026-07-06T02:37:06.652992,15.15617435,.00088842,45.0021,289.0890,286.7069,73.2834,0,U,60452,999,10489,.20743594E-3,.3749E-4,0
LEGION 4,2024-146B,2026-07-06T01:04:03.378720,15.16192152,.0011588,45.0022,21.3212,54.7631,305.4331,0,U,60453,999,10373,.24876858E-3,.4629E-4,0
SENTINEL-2C,2024-157A,2026-07-06T04:38:40.087392,14.30814003,.00009373,98.5686,261.7062,94.8836,265.2454,0,U,60989,999,9570,.61530816E-4,.118E-5,0
IONOSFERA-M 1,2024-199A,2026-07-06T04:21:44.927136,14.22757865,.00022223,98.7149,60.1513,84.9742,275.1690,0,U,61735,999,13040,.36723169E-4,.38E-6,0
